{
  "type": "FeatureCollection",
  "features": [
    {
      "type": "Feature",
      "properties": {
        "norad_id": 22675,
        "name": "COSMOS 2251",
        "group": "cosmos-2251-debris",
        "lat": -34.089007900368735,
        "lon": 154.3634220069768,
        "alt_km": 803.6176367190337,
        "timestamp": "2025-12-08T17:43:05.329955+00:00",
        "meta_object_name": "COSMOS 2251",
        "meta_object_id": "1993-036A",
        "meta_epoch": "2025-12-08T06:39:55.086624",
        "meta_mean_motion": 14.33202753,
        "meta_eccentricity": 0.00238269,
        "meta_inclination": 74.0393,
        "meta_ra_of_asc_node": 324.0367,
        "meta_arg_of_pericenter": 47.6788,
        "meta_mean_anomaly": 312.6377,
        "meta_ephemeris_type": 0,
        "meta_classification_type": "U",
        "meta_norad_cat_id": 22675,
        "meta_element_set_no": 999,
        "meta_rev_at_epoch": 69709,
        "meta_bstar": 0.00010213558,
        "meta_mean_motion_dot": 2.56e-06,
        "meta_mean_motion_ddot": 0,
        "tle_line1": "1 22675U 93036A   25342.27772091  .00000256  00000+0  10214-3 0  9997",
        "tle_line2": "2 22675  74.0393 324.0367 0023826  47.6788 312.6377 14.33202753697096"
      },
      "geometry": {
        "type": "Point",
        "coordinates": [
          154.3634220069768,
          -34.089007900368735
        ]
      }
    },
    {
      "type": "Feature",
      "properties": {
        "norad_id": 33757,
        "name": "COSMOS 2251 DEB",
        "group": "cosmos-2251-debris",
        "lat": -72.65200860309163,
        "lon": -142.6929803558164,
        "alt_km": 788.512372856313,
        "timestamp": "2025-12-08T17:43:05.329985+00:00",
        "meta_object_name": "COSMOS 2251 DEB",
        "meta_object_id": "1993-036E",
        "meta_epoch": "2025-12-08T06:56:45.918240",
        "meta_mean_motion": 14.32579336,
        "meta_eccentricity": 0.0015088,
        "meta_inclination": 74.0366,
        "meta_ra_of_asc_node": 331.7347,
        "meta_arg_of_pericenter": 345.8256,
        "meta_mean_anomaly": 123.6255,
        "meta_ephemeris_type": 0,
        "meta_classification_type": "U",
        "meta_norad_cat_id": 33757,
        "meta_element_set_no": 999,
        "meta_rev_at_epoch": 87932,
        "meta_bstar": 8.5287868e-05,
        "meta_mean_motion_dot": 2.06e-06,
        "meta_mean_motion_ddot": 0,
        "tle_line1": "1 33757U 93036E   25342.28942035  .00000206  00000+0  85288-4 0  9997",
        "tle_line2": "2 33757  74.0366 331.7347 0015088 345.8256 123.6255 14.32579336879322"
      },
      "geometry": {
        "type": "Point",
        "coordinates": [
          -142.6929803558164,
          -72.65200860309163
        ]
      }
    },
    {
      "type": "Feature",
      "properties": {
        "norad_id": 33758,
        "name": "COSMOS 2251 DEB",
        "group": "cosmos-2251-debris",
        "lat": -60.34166426650961,
        "lon": -167.63007870554083,
        "alt_km": 715.000353238388,
        "timestamp": "2025-12-08T17:43:05.330001+00:00",
        "meta_object_name": "COSMOS 2251 DEB",
        "meta_object_id": "1993-036F",
        "meta_epoch": "2025-12-08T03:51:05.192064",
        "meta_mean_motion": 14.51551104,
        "meta_eccentricity": 0.0017506,
        "meta_inclination": 74.0278,
        "meta_ra_of_asc_node": 223.6548,
        "meta_arg_of_pericenter": 290.7646,
        "meta_mean_anomaly": 226.5807,
        "meta_ephemeris_type": 0,
        "meta_classification_type": "U",
        "meta_norad_cat_id": 33758,
        "meta_element_set_no": 999,
        "meta_rev_at_epoch": 88238,
        "meta_bstar": 0.0010953263,
        "meta_mean_motion_dot": 4.366e-05,
        "meta_mean_motion_ddot": 0,
        "tle_line1": "1 33758U 93036F   25342.16047676  .00004366  00000+0  10953-2 0  9998",
        "tle_line2": "2 33758  74.0278 223.6548 0017506 290.7646 226.5807 14.51551104882385"
      },
      "geometry": {
        "type": "Point",
        "coordinates": [
          -167.63007870554083,
          -60.34166426650961
        ]
      }
    },
    {
      "type": "Feature",
      "properties": {
        "norad_id": 33760,
        "name": "COSMOS 2251 DEB",
        "group": "cosmos-2251-debris",
        "lat": 67.3068752604527,
        "lon": 65.58661485232241,
        "alt_km": 762.9885361634879,
        "timestamp": "2025-12-08T17:43:05.330014+00:00",
        "meta_object_name": "COSMOS 2251 DEB",
        "meta_object_id": "1993-036H",
        "meta_epoch": "2025-12-08T07:44:19.026816",
        "meta_mean_motion": 14.3566828,
        "meta_eccentricity": 0.00196891,
        "meta_inclination": 74.0319,
        "meta_ra_of_asc_node": 289.563,
        "meta_arg_of_pericenter": 29.137,
        "meta_mean_anomaly": 88.7125,
        "meta_ephemeris_type": 0,
        "meta_classification_type": "U",
        "meta_norad_cat_id": 33760,
        "meta_element_set_no": 999,
        "meta_rev_at_epoch": 88061,
        "meta_bstar": 0.00022625397,
        "meta_mean_motion_dot": 6.28e-06,
        "meta_mean_motion_ddot": 0,
        "tle_line1": "1 33760U 93036H   25342.32244244  .00000628  00000+0  22625-3 0  9996",
        "tle_line2": "2 33760  74.0319 289.5630 0019689  29.1370  88.7125 14.35668280880610"
      },
      "geometry": {
        "type": "Point",
        "coordinates": [
          65.58661485232241,
          67.3068752604527
        ]
      }
    },
    {
      "type": "Feature",
      "properties": {
        "norad_id": 33761,
        "name": "COSMOS 2251 DEB",
        "group": "cosmos-2251-debris",
        "lat": -59.931240031878566,
        "lon": -130.04175342636904,
        "alt_km": 745.2679039028544,
        "timestamp": "2025-12-08T17:43:05.330026+00:00",
        "meta_object_name": "COSMOS 2251 DEB",
        "meta_object_id": "1993-036J",
        "meta_epoch": "2025-12-08T01:27:30.722400",
        "meta_mean_motion": 14.42521607,
        "meta_eccentricity": 0.00229104,
        "meta_inclination": 74.0374,
        "meta_ra_of_asc_node": 260.8438,
        "meta_arg_of_pericenter": 341.7072,
        "meta_mean_anomaly": 37.5429,
        "meta_ephemeris_type": 0,
        "meta_classification_type": "U",
        "meta_norad_cat_id": 33761,
        "meta_element_set_no": 999,
        "meta_rev_at_epoch": 88167,
        "meta_bstar": 0.00074241453,
        "meta_mean_motion_dot": 2.444e-05,
        "meta_mean_motion_ddot": 0,
        "tle_line1": "1 33761U 93036J   25342.06077225  .00002444  00000+0  74241-3 0  9990",
        "tle_line2": "2 33761  74.0374 260.8438 0022910 341.7072  37.5429 14.42521607881678"
      },
      "geometry": {
        "type": "Point",
        "coordinates": [
          -130.04175342636904,
          -59.931240031878566
        ]
      }
    },
    {
      "type": "Feature",
      "properties": {
        "norad_id": 33762,
        "name": "COSMOS 2251 DEB",
        "group": "cosmos-2251-debris",
        "lat": 66.86768260476106,
        "lon": -0.6037042168475373,
        "alt_km": 766.2654423918102,
        "timestamp": "2025-12-08T17:43:05.330039+00:00",
        "meta_object_name": "COSMOS 2251 DEB",
        "meta_object_id": "1993-036K",
        "meta_epoch": "2025-12-08T07:52:10.121952",
        "meta_mean_motion": 14.33661741,
        "meta_eccentricity": 0.00148268,
        "meta_inclination": 74.0413,
        "meta_ra_of_asc_node": 318.0929,
        "meta_arg_of_pericenter": 20.8181,
        "meta_mean_anomaly": 95.0176,
        "meta_ephemeris_type": 0,
        "meta_classification_type": "U",
        "meta_norad_cat_id": 33762,
        "meta_element_set_no": 999,
        "meta_rev_at_epoch": 87984,
        "meta_bstar": 0.00010156966,
        "meta_mean_motion_dot": 2.56e-06,
        "meta_mean_motion_ddot": 0,
        "tle_line1": "1 33762U 93036K   25342.32789493  .00000256  00000+0  10157-3 0  9992",
        "tle_line2": "2 33762  74.0413 318.0929 0014826  20.8181  95.0176 14.33661741879845"
      },
      "geometry": {
        "type": "Point",
        "coordinates": [
          -0.6037042168475373,
          66.86768260476106
        ]
      }
    },
    {
      "type": "Feature",
      "properties": {
        "norad_id": 33764,
        "name": "COSMOS 2251 DEB",
        "group": "cosmos-2251-debris",
        "lat": 48.8268670316916,
        "lon": 80.93991927147036,
        "alt_km": 763.4647404958214,
        "timestamp": "2025-12-08T17:43:05.330051+00:00",
        "meta_object_name": "COSMOS 2251 DEB",
        "meta_object_id": "1993-036M",
        "meta_epoch": "2025-12-08T07:39:59.918400",
        "meta_mean_motion": 14.39495999,
        "meta_eccentricity": 0.00241175,
        "meta_inclination": 74.0346,
        "meta_ra_of_asc_node": 280.8192,
        "meta_arg_of_pericenter": 247.3361,
        "meta_mean_anomaly": 231.8188,
        "meta_ephemeris_type": 0,
        "meta_classification_type": "U",
        "meta_norad_cat_id": 33764,
        "meta_element_set_no": 999,
        "meta_rev_at_epoch": 88093,
        "meta_bstar": 0.00065891885,
        "meta_mean_motion_dot": 2.035e-05,
        "meta_mean_motion_ddot": 0,
        "tle_line1": "1 33764U 93036M   25342.31944350  .00002035  00000+0  65892-3 0  9991",
        "tle_line2": "2 33764  74.0346 280.8192 0024117 247.3361 231.8188 14.39495999880931"
      },
      "geometry": {
        "type": "Point",
        "coordinates": [
          80.93991927147036,
          48.8268670316916
        ]
      }
    }
  ]
}